{
    "links": {
        "self": "http://www.neowsapp.com/rest/v1/neo/3623526?api_key=iIulBulltgU6a56xZRHN4H3l9WmuAYTsLGpBGhQ2"
    },
    "id": "3623526",
    "neo_reference_id": "3623526",
    "name": "(2013 AP20)",
    "designation": "2013 AP20",
    "nasa_jpl_url": "http://ssd.jpl.nasa.gov/sbdb.cgi?sstr=3623526",
    "absolute_magnitude_h": 27.6,
    "estimated_diameter": {
        "kilometers": {
            "estimated_diameter_min": 0.0080270317,
            "estimated_diameter_max": 0.0179489885
        },
        "meters": {
            "estimated_diameter_min": 8.0270316728,
            "estimated_diameter_max": 17.948988478
        },
        "miles": {
            "estimated_diameter_min": 0.0049877647,
            "estimated_diameter_max": 0.0111529809
        },
        "feet": {
            "estimated_diameter_min": 26.3354065935,
            "estimated_diameter_max": 58.8877593581
        }
    },
    "is_potentially_hazardous_asteroid": false,
    "close_approach_data": [
        {
            "close_approach_date": "1955-02-04",
            "close_approach_date_full": "1955-Feb-04 03:23",
            "epoch_date_close_approach": -470435820000,
            "relative_velocity": {
                "kilometers_per_second": "15.17786274",
                "kilometers_per_hour": "54640.3058639672",
                "miles_per_hour": "33951.3611630856"
            },
            "miss_distance": {
                "astronomical": "0.3234710913",
                "lunar": "125.8302545157",
                "kilometers": "48390586.265055531",
                "miles": "30068516.0094910878"
            },
            "orbiting_body": "Earth"
        },
        {
            "close_approach_date": "2010-10-27",
            "close_approach_date_full": "2010-Oct-27 09:13",
            "epoch_date_close_approach": 1288170780000,
            "relative_velocity": {
                "kilometers_per_second": "15.5040644024",
                "kilometers_per_hour": "55814.6318486328",
                "miles_per_hour": "34681.0416617241"
            },
            "miss_distance": {
                "astronomical": "0.3445231611",
                "lunar": "134.0195096679",
                "kilometers": "51539931.066226857",
                "miles": "32025428.1257183466"
            },
            "orbiting_body": "Earth"
        },
        {
            "close_approach_date": "2013-01-01",
            "close_approach_date_full": "2013-Jan-01 17:40",
            "epoch_date_close_approach": 1357062000000,
            "relative_velocity": {
                "kilometers_per_second": "5.7083526067",
                "kilometers_per_hour": "20550.069384085",
                "miles_per_hour": "12769.0139459055"
            },
            "miss_distance": {
                "astronomical": "0.0271517582",
                "lunar": "10.5620339398",
                "kilometers": "4061845.193475034",
                "miles": "2523913.5677981092"
            },
            "orbiting_body": "Earth"
        },
        {
            "close_approach_date": "2015-02-12",
            "close_approach_date_full": "2015-Feb-12 23:12",
            "epoch_date_close_approach": 1423782720000,
            "relative_velocity": {
                "kilometers_per_second": "19.4151821448",
                "kilometers_per_hour": "69894.6557212206",
                "miles_per_hour": "43429.8209396662"
            },
            "miss_distance": {
                "astronomical": "0.4667272236",
                "lunar": "181.5568899804",
                "kilometers": "69821398.521573732",
                "miles": "43385005.2518802216"
            },
            "orbiting_body": "Earth"
        }
    ],
    "orbital_data": {
        "orbit_id": "4",
        "orbit_determination_date": "2017-04-06 08:47:24",
        "first_observation_date": "2013-01-06",
        "last_observation_date": "2013-01-07",
        "data_arc_in_days": 1,
        "observations_used": 19,
        "orbit_uncertainty": "7",
        "minimum_orbit_intersection": ".0243964",
        "jupiter_tisserand_invariant": "4.228",
        "epoch_osculation": "2459000.5",
        "eccentricity": ".3862026273150376",
        "semi_major_axis": "1.626503995490848",
        "inclination": "3.741783146726122",
        "ascending_node_longitude": "289.3847818721584",
        "orbital_period": "757.6718089622276",
        "perihelion_distance": ".9983438790938762",
        "perihelion_argument": "156.8448067718131",
        "aphelion_distance": "2.254664111887819",
        "perihelion_time": "2459311.480819558101",
        "mean_anomaly": "212.2406486335331",
        "mean_motion": ".475139758061062",
        "equinox": "J2000",
        "orbit_class": {
            "orbit_class_type": "APO",
            "orbit_class_description": "Near-Earth asteroid orbits which cross the Earth’s orbit similar to that of 1862 Apollo",
            "orbit_class_range": "a (semi-major axis) > 1.0 AU; q (perihelion) < 1.017 AU"
        }
    },
    "is_sentry_object": false
}